IRIDIUM 8 [+]           
1 24792U 97020A   08112.51058274 -.00000087  00000-0 -38036-4 0  1506
2 24792  86.3891 276.0861 0002303  87.5488 272.5968 14.34215605573947
IRIDIUM 7 [+]           
1 24793U 97020B   08112.50425098 -.00000093  00000-0 -40285-4 0  1458
2 24793  86.3888 276.2027 0002311  87.4928 272.6544 14.34215219573949
IRIDIUM 6 [+]           
1 24794U 97020C   08112.49790125 -.00000050  00000-0 -25025-4 0  9482
2 24794  86.3891 276.1995 0002537  88.3301 271.8197 14.34215363573947
IRIDIUM 5 [+]           
1 24795U 97020D   08112.49155646 -.00000071  00000-0 -32475-4 0  2456
2 24795  86.3889 276.3752 0003155  63.0252 297.1282 14.34215124574021
IRIDIUM 4 [+]           
1 24796U 97020E   08112.51692727 -.00000045  00000-0 -23253-4 0  1742
2 24796  86.3885 275.9980 0002350  91.1393 269.0076 14.34215499573966
IRIDIUM 914 [-]         
1 24836U 97030A   08113.03344696  .00000110  00000-0  30348-4 0  9006
2 24836  86.3891 301.2397 0001035  43.4779 316.6501 14.37389313568528
IRIDIUM 12 [+]          
1 24837U 97030B   08112.50766844 -.00000028  00000-0 -16906-4 0  1625
2 24837  86.3910 307.5971 0002260  80.5305 279.6158 14.34219616567694
IRIDIUM 10 [+]          
1 24839U 97030D   08112.49498572  .00000011  00000-0 -32329-5 0  1501
2 24839  86.3909 307.6018 0002234  86.9923 273.1531 14.34219634567700
IRIDIUM 13 [+]          
1 24840U 97030E   08112.51400914 -.00000004  00000-0 -86392-5 0  1286
2 24840  86.3908 307.6591 0002297  84.3968 275.7498 14.34219773567699
IRIDIUM 16 [-]          
1 24841U 97030F   08112.51815834  .00000136  00000-0  40495-4 0  1409
2 24841  86.3988 308.1011 0004157  69.8806 290.2836 14.35229134567799
IRIDIUM 911 [-]         
1 24842U 97030G   08112.37840489  .00000125  00000-0  31280-4 0  9776
2 24842  86.4434 310.5329 0016471  23.3449 336.8494 14.43105937570453
IRIDIUM 15 [+]          
1 24869U 97034A   08112.29548612  .00000147  00000-0  45424-4 0  1774
2 24869  86.3974 339.3390 0002243  78.5177 281.6270 14.34223194564637
IRIDIUM 17 [-]          
1 24870U 97034B   08112.15964055  .00000146  00000-0  44946-4 0  1300
2 24870  86.3978 339.3486 0002354  79.1589 280.9878 14.34382850564626
IRIDIUM 920 [-]         
1 24871U 97034C   08112.67951718  .00000090  00000-0  22962-4 0  9210
2 24871  86.3981 333.2354 0012138 153.4143 206.7675 14.38018168565658
IRIDIUM 18 [+]          
1 24872U 97034D   08112.53650174  .00000140  00000-0  42970-4 0  1521
2 24872  86.3974 339.3656 0002468  77.4658 282.6818 14.34223401564660
IRIDIUM 921 [-]         
1 24873U 97034E   08112.96178585  .00000996  00000-0  84065-4 0  2059
2 24873  86.3915 186.0555 0006132 264.3410  95.7121 14.96929218586195
IRIDIUM 26 [+]          
1 24903U 97043A   08112.38332407  .00000178  00000-0  56365-4 0  2542
2 24903  86.3997 212.9657 0002375  91.3217 268.8263 14.34220784558585
IRIDIUM 25 [+]          
1 24904U 97043B   08112.34527665  .00000161  00000-0  50366-4 0  1547
2 24904  86.3992 212.9379 0002437  93.2558 266.8924 14.34220614558540
IRIDIUM 46 [+]          
1 24905U 97043C   08112.42771874  .00000123  00000-0  36810-4 0  1658
2 24905  86.4004 213.1460 0002450  93.5831 266.5704 14.34214602558567
IRIDIUM 23 [+]          
1 24906U 97043D   08112.33257690 -.00000964  00000-0 -35142-3 0  1611
2 24906  86.3992 212.8851 0002512  92.0134 268.1297 14.34214073558558
IRIDIUM 22 [+]          
1 24907U 97043E   08112.39600355  .00000167  00000-0  52686-4 0  1366
2 24907  86.4000 213.1952 0002381  94.0402 266.1084 14.34220997558565
DUMMY MASS 1 [-]        
1 24925U 97048A   08113.11410021  .00000069  00000-0  49282-5 0  8683
2 24925  86.3352 142.6635 0006892 347.0649  13.0410 14.83798244575697
DUMMY MASS 2 [-]        
1 24926U 97048B   08112.71544557  .00000068  00000-0  48579-5 0  8587
2 24926  86.3354 143.4273 0007827 350.4044   9.7040 14.83579494575553
IRIDIUM 29 [+]          
1 24944U 97051A   08111.91737013  .00000080  00000-0  21650-4 0  1164
2 24944  86.3927 244.7269 0002297  89.7592 270.3861 14.34214010555062
IRIDIUM 32 [+]          
1 24945U 97051B   08112.00615515  .00000016  00000-0 -15246-5 0  1275
2 24945  86.3931 244.7016 0002327  90.8633 269.2815 14.34214027555098
IRIDIUM 33 [+]          
1 24946U 97051C   08112.01250270  .00000050  00000-0  10892-4 0  1122
2 24946  86.3932 244.7498 0002359  89.9592 270.1869 14.34214097555088
IRIDIUM 28 [+]          
1 24948U 97051E   08111.91098892  .00000142  00000-0  43762-4 0  9810
2 24948  86.3935 244.8757 0002380  83.0617 277.0840 14.34215504555055
IRIDIUM 30 [+]          
1 24949U 97051F   08111.99980616  .00000099  00000-0  28344-4 0  1613
2 24949  86.3929 244.7512 0002388  91.6054 268.5401 14.34214804555077
IRIDIUM 31 [+]          
1 24950U 97051G   08111.92371143  .00000151  00000-0  46771-4 0  1452
2 24950  86.3933 244.7714 0002355  92.0845 268.0608 14.34214286555073
IRIDIUM 19 [+]          
1 24965U 97056A   08112.53597010 -.00000110  00000-0 -46524-4 0  1132
2 24965  86.3886 276.0470 0002284  87.4103 272.7350 14.34214840553305
IRIDIUM 35 [+]          
1 24966U 97056B   08112.54863482 -.00000038  00000-0 -20486-4 0  1669
2 24966  86.3887 276.0697 0002314  87.4346 272.7112 14.34215661553286
IRIDIUM 36 [-]          
1 24967U 97056C   08112.54898449  .00000053  00000-0  11674-4 0   967
2 24967  86.3896 276.1269 0002328  79.8487 280.2973 14.34260026553429
IRIDIUM 37 [+]          
1 24968U 97056D   08112.52325161 -.00000043  00000-0 -22323-4 0  1349
2 24968  86.3890 276.1668 0002293  86.5682 273.5773 14.34215814553282
IRIDIUM 34 [+]          
1 24969U 97056E   08112.54228748 -.00000060  00000-0 -28490-4 0  1222
2 24969  86.3886 276.1069 0002301  88.2965 271.8488 14.34215707553281
IRIDIUM 43 [+]          
1 25039U 97069A   08112.18132154  .00000158  00000-0  49400-4 0  1152
2 25039  86.3975 339.5290 0002265  79.1345 281.0117 14.34223069547015
IRIDIUM 41 [+]          
1 25040U 97069B   08112.17497556  .00000116  00000-0  34324-4 0  1033
2 25040  86.3976 339.4536 0002283  76.7674 283.3788 14.34223061547019
IRIDIUM 40 [+]          
1 25041U 97069C   08112.13057765  .00000117  00000-0  34545-4 0  1276
2 25041  86.3973 339.4456 0002288  79.0974 281.0486 14.34223113547021
IRIDIUM 39 [+]          
1 25042U 97069D   08112.13692088  .00000138  00000-0  42045-4 0  1020
2 25042  86.3992 339.5593 0002472  79.4824 280.6664 14.34223457547001
IRIDIUM 38 [-]          
1 25043U 97069E   08112.13153607  .00000083  00000-0  22490-4 0  1324
2 25043  86.3965 338.9961 0003037  70.4077 289.7455 14.34647435547096
IRIDIUM 42 [+]          
1 25077U 97077A   08112.54284304  .00000101  00000-0  28931-4 0  1208
2 25077  86.3975 339.3411 0002290  74.8414 285.3037 14.34223231542921
IRIDIUM 44 [-]          
1 25078U 97077B   08112.08707607  .00000074  00000-0  18556-4 0  7986
2 25078  86.3973 335.7176 0004094  69.7890 290.3758 14.36492540543338
IRIDIUM 45 [+]          
1 25104U 97082A   08112.35160809 -.00000092  00000-0 -40011-4 0   671
2 25104  86.3987 212.9711 0002428  95.7209 264.4340 14.34213793541095
IRIDIUM 24 [-]          
1 25105U 97082B   08113.20926518  .00000079  00000-0  19545-4 0  8538
2 25105  86.3973 204.5962 0011806 158.7077 201.4625 14.38207299542141
IRIDIUM 47 [+]          
1 25106U 97082C   08112.50382982  .00000132  00000-0  40058-4 0   616
2 25106  86.3989 212.8514 0002463  96.4295 263.7228 14.34214545541117
IRIDIUM 49 [+]          
1 25108U 97082E   08112.37697467 -.00000898  00000-0 -32763-3 0   771
2 25108  86.3994 212.9133 0002473  94.1334 266.0084 14.34214013541108
IRIDIUM 52 [+]          
1 25169U 98010A   08112.05734195 -.00000061  00000-0 -28960-4 0  8590
2 25169  86.3911 307.9260 0002261  84.2826 275.8629 14.34219644532468
IRIDIUM 56 [+]          
1 25170U 98010B   08112.05099465 -.00000033  00000-0 -18922-4 0  3395
2 25170  86.3916 307.9649 0002256  81.7957 278.3500 14.34219995532440
IRIDIUM 54 [+]          
1 25171U 98010C   08112.15247700 -.00000002  00000-0 -78028-5 0   852
2 25171  86.3910 307.8870 0002255  85.1714 274.9742 14.34220029532628
IRIDIUM 50 [+]          
1 25172U 98010D   08112.18419272 -.00000044  00000-0 -22689-4 0  1084
2 25172  86.3912 307.8471 0002276  80.9873 279.1593 14.34219723532462
IRIDIUM 53 [+]          
1 25173U 98010E   08112.13345574  .00000030  00000-0  36896-5 0   946
2 25173  86.3914 307.8789 0002263  81.0373 279.1086 14.34220040532461
IRIDIUM 51 [S]          
1 25262U 98018A   08112.50175118 -.00000432  00000-0 -13546-3 0  1921
2 25262  86.4407 276.1803 0002381  89.9185 270.2164 14.42965453530563
IRIDIUM 61 [+]          
1 25263U 98018B   08112.52961439 -.00000090  00000-0 -39040-4 0   436
2 25263  86.3888 276.1435 0002335  88.3091 271.8366 14.34215236527616
IRIDIUM 55 [+]          
1 25272U 98019A   08112.46282494  .00000086  00000-0  23612-4 0   382
2 25272  86.3929 244.4465 0002326  91.7288 268.4187 14.34214364526803
IRIDIUM 57 [+]          
1 25273U 98019B   08111.94908186  .00000107  00000-0  31253-4 0   685
2 25273  86.3931 244.8202 0002359  89.3681 270.7799 14.34214127526730
IRIDIUM 58 [+]          
1 25274U 98019C   08111.88564973  .00000082  00000-0  22161-4 0  8904
2 25274  86.3934 244.9438 0002380  90.8943 269.2521 14.34214281526724
IRIDIUM 59 [+]          
1 25275U 98019D   08112.45014131  .00000105  00000-0  30417-4 0  7431
2 25275  86.3932 244.7408 0002319  64.5471 295.5964 14.34214228526807
IRIDIUM 60 [+]          
1 25276U 98019E   08112.10764027  .00000096  00000-0  27058-4 0  1014
2 25276  86.3925 244.6362 0002362  91.1148 269.0307 14.34214355526755
IRIDIUM 62 [+]          
1 25285U 98021A   08112.20876823  .00000139  00000-0  42739-4 0   667
2 25285  86.4008 181.4807 0002425  91.5426 268.6046 14.34225500525728
IRIDIUM 63 [+]          
1 25286U 98021B   08112.21510110  .00000148  00000-0  45779-4 0   749
2 25286  86.4013 181.5522 0002469  89.2460 270.9025 14.34226427525722
IRIDIUM 64 [+]          
1 25287U 98021C   08112.22146104  .00000140  00000-0  43059-4 0   313
2 25287  86.4010 181.4950 0002468  90.3265 269.8212 14.34225934525704
